IRIDIUM 138             
1 43071U 17083B   26166.92110122 -.00000025  00000+0 -16001-4 0  9993
2 43071  86.3973 322.2401 0002215  87.3565 272.7884 14.34217207443955
IRIDIUM 116             
1 43072U 17083C   26167.16846196  .00000031  00000+0  39559-5 0  9997
2 43072  86.3962 322.4273 0001953  98.3378 261.8039 14.34217848444026
IRIDIUM 130             
1 43073U 17083D   26167.13674803  .00000079  00000+0  21129-4 0  9994
2 43073  86.3970 322.7158 0001958  91.9869 268.1551 14.34218223443969
IRIDIUM 151             
1 43074U 17083E   26167.18114780  .00000014  00000+0 -20699-5 0  9995
2 43074  86.3965 322.4797 0002147  92.6761 267.4681 14.34217652443994
IRIDIUM 134             
1 43075U 17083F   26167.14943440  .00000002  00000+0 -64438-5 0  9991
2 43075  86.3962 322.5012 0001979  91.2056 268.9367 14.34217593443954
IRIDIUM 137             
1 43076U 17083G   26167.16211958  .00000039  00000+0  67250-5 0  9990
2 43076  86.3967 322.5885 0002240 103.8656 256.2789 14.34217947444026
IRIDIUM 141             
1 43077U 17083H   26166.94647139  .00000030  00000+0  38176-5 0  9996
2 43077  86.3961 322.5093 0002201  90.8914 269.2534 14.34217929443998
IRIDIUM 153             
1 43078U 17083J   26167.10795662  .00000013  00000+0 -23023-5 0  9998
2 43078  86.3959 290.9220 0002260  89.8984 270.2470 14.34217573445129
IRIDIUM 131             
1 43079U 17083K   26166.86401575  .00000141  00000+0  43115-4 0  9992
2 43079  86.3968 322.7297 0002217  92.0861 268.0589 14.34219103443912
IRIDIUM 144             
1 43249U 18030A   26166.83522286  .00000087  00000+0  24000-4 0  9995
2 43249  86.3958 290.9653 0002106  96.4936 263.6500 14.34218493429942
IRIDIUM 149             
1 43250U 18030B   26167.05087345 -.00000034  00000+0 -19163-4 0  9992
2 43250  86.3953 290.8423 0002143  93.8779 266.2662 14.34217175429999
IRIDIUM 157             
1 43251U 18030C   26166.86059511  .00000004  00000+0 -58006-5 0  9991
2 43251  86.3955 290.9750 0002071  94.3015 265.8417 14.34217538429946
IRIDIUM 140             
1 43252U 18030D   26167.08892850  .00000006  00000+0 -50106-5 0  9993
2 43252  86.3955 290.8921 0002029  93.7050 266.4377 14.34217485430036
IRIDIUM 145             
1 43253U 18030E   26167.07624295  .00000034  00000+0  52355-5 0  9997
2 43253  86.3958 290.8695 0001967 100.9654 259.1763 14.34217515429961
IRIDIUM 146             
1 43254U 18030F   26167.05721466  .00000072  00000+0  18538-4 0  9990
2 43254  86.3957 290.8897 0002115  96.6727 263.4709 14.34218161429970
IRIDIUM 148             
1 43255U 18030G   26167.09527140  .00000046  00000+0  92125-5 0  9994
2 43255  86.3959 290.9169 0002251  96.5187 263.6265 14.34217766430012
IRIDIUM 142             
1 43256U 18030H   26167.06355799  .00000035  00000+0  52737-5 0  9994
2 43256  86.3955 290.8190 0002073  98.6689 261.4742 14.34217473429978
IRIDIUM 150             
1 43257U 18030J   26167.10161387  .00000017  00000+0 -10909-5 0  9994
2 43257  86.3958 290.9195 0002140  93.4911 266.6530 14.34217546430003
IRIDIUM 143             
1 43258U 18030K   26167.08258575  .00000071  00000+0  18334-4 0  9996
2 43258  86.3961 291.0200 0002072  96.3940 263.7491 14.34217471429936
IRIDIUM 161             
1 43478U 18047C   26167.19836157  .00000281  00000+0  77639-4 0  9994
2 43478  86.4482  88.8846 0002520  84.6909 275.4579 14.43282520424995
IRIDIUM 152             
1 43479U 18047D   26167.19484069  .00000093  00000+0  26195-4 0  9998
2 43479  86.3959  88.7473 0002327  82.9531 277.1929 14.34218238422346
IRIDIUM 147             
1 43480U 18047E   26167.06164679  .00000036  00000+0  58982-5 0  9995
2 43480  86.3960  88.8081 0002145  85.6874 274.4567 14.34217628422322
IRIDIUM 110             
1 43481U 18047F   26167.13775877  .00000086  00000+0  23817-4 0  9995
2 43481  86.3961  88.8680 0002575  82.7330 277.4158 14.34217125422322
IRIDIUM 162             
1 43482U 18047G   26167.19207109  .00000285  00000+0  78622-4 0  9995
2 43482  86.4482  88.7784 0002269  82.4099 277.7359 14.43281182424989
IRIDIUM 160             
1 43569U 18061A   26167.15336203  .00000077  00000+0  20356-4 0  9991
2 43569  86.3963  57.2298 0002259  85.3720 274.7734 14.34218039413221
IRIDIUM 166             
1 43570U 18061B   26167.17873244  .00000038  00000+0  66612-5 0  9999
2 43570  86.3963  57.1697 0002103  86.2993 273.8444 14.34217728413250
IRIDIUM 158             
1 43571U 18061C   26167.14701919  .00000077  00000+0  20388-4 0  9998
2 43571  86.3962  57.1928 0002184  82.2197 277.9246 14.34217978413216
IRIDIUM 165             
1 43572U 18061D   26167.17238897  .00000101  00000+0  29130-4 0  9994
2 43572  86.3964  57.2287 0002060  86.3026 273.8405 14.34217515413249
IRIDIUM 155             
1 43573U 18061E   26167.13433432  .00000035  00000+0  55632-5 0  9996
2 43573  86.3959  57.1136 0002105  82.4371 277.7064 14.34217634413208
IRIDIUM 154             
1 43574U 18061F   26167.18507230  .00000217  00000+0  70429-4 0  9992
2 43574  86.3974  57.2275 0002247  92.9855 267.1598 14.34214747413264
IRIDIUM 163             
1 43575U 18061G   26167.16604358  .00000064  00000+0  15849-4 0  9995
2 43575  86.3960  57.1492 0002257  83.2786 276.8666 14.34216448413237
