OBJECT_NAME,OBJECT_ID,EPOCH,MEAN_MOTION,ECCENTRICITY,INCLINATION,RA_OF_ASC_NODE,ARG_OF_PERICENTER,MEAN_ANOMALY,EPHEMERIS_TYPE,CLASSIFICATION_TYPE,NORAD_CAT_ID,ELEMENT_SET_NO,REV_AT_EPOCH,BSTAR,MEAN_MOTION_DOT,MEAN_MOTION_DDOT
IRIDIUM 138,2017-083B,2026-06-15T22:06:23.145408,14.34217207,.0002215,86.3973,322.2401,87.3565,272.7884,0,U,43071,999,44395,-.16001E-4,-.25E-6,0
IRIDIUM 116,2017-083C,2026-06-16T04:02:35.113344,14.34217848,.0001953,86.3962,322.4273,98.3378,261.8039,0,U,43072,999,44402,.39559E-5,.31E-6,0
IRIDIUM 130,2017-083D,2026-06-16T03:16:55.029792,14.34218223,.0001958,86.3970,322.7158,91.9869,268.1551,0,U,43073,999,44396,.21129E-4,.79E-6,0
IRIDIUM 151,2017-083E,2026-06-16T04:20:51.169920,14.34217652,.0002147,86.3965,322.4797,92.6761,267.4681,0,U,43074,999,44399,-.20699E-5,.14E-6,0
IRIDIUM 134,2017-083F,2026-06-16T03:35:11.132160,14.34217593,.0001979,86.3962,322.5012,91.2056,268.9367,0,U,43075,999,44395,-.64438E-5,.2E-7,0
IRIDIUM 137,2017-083G,2026-06-16T03:53:27.131712,14.34217947,.000224,86.3967,322.5885,103.8656,256.2789,0,U,43076,999,44402,.6725E-5,.39E-6,0
IRIDIUM 141,2017-083H,2026-06-15T22:42:55.128096,14.34217929,.0002201,86.3961,322.5093,90.8914,269.2534,0,U,43077,999,44399,.38176E-5,.3E-6,0
IRIDIUM 153,2017-083J,2026-06-16T02:35:27.451968,14.34217573,.000226,86.3959,290.9220,89.8984,270.2470,0,U,43078,999,44512,-.23023E-5,.13E-6,0
IRIDIUM 131,2017-083K,2026-06-15T20:44:10.960800,14.34219103,.00022171,86.3968,322.7297,92.0861,268.0589,0,U,43079,999,44391,.43115215E-4,.141E-5,0
IRIDIUM 144,2018-030A,2026-06-15T20:02:43.255104,14.34218493,.00021065,86.3958,290.9653,96.4936,263.6500,0,U,43249,999,42994,.24000395E-4,.87E-6,0
IRIDIUM 149,2018-030B,2026-06-16T01:13:15.466080,14.34217175,.0002143,86.3953,290.8423,93.8779,266.2662,0,U,43250,999,42999,-.19163E-4,-.34E-6,0
IRIDIUM 157,2018-030C,2026-06-15T20:39:15.417504,14.34217538,.00020715,86.3955,290.9750,94.3015,265.8417,0,U,43251,999,42994,-.5800589E-5,.4E-7,0
IRIDIUM 140,2018-030D,2026-06-16T02:08:03.422400,14.34217485,.0002029,86.3955,290.8921,93.7050,266.4377,0,U,43252,999,43003,-.50106E-5,.6E-7,0
IRIDIUM 145,2018-030E,2026-06-16T01:49:47.390880,14.34217515,.0001967,86.3958,290.8695,100.9654,259.1763,0,U,43253,999,42996,.52355E-5,.34E-6,0
IRIDIUM 146,2018-030F,2026-06-16T01:22:23.346624,14.34218161,.0002115,86.3957,290.8897,96.6727,263.4709,0,U,43254,999,42997,.18538E-4,.72E-6,0
IRIDIUM 148,2018-030G,2026-06-16T02:17:11.448960,14.34217766,.0002251,86.3959,290.9169,96.5187,263.6265,0,U,43255,999,43001,.92125E-5,.46E-6,0
IRIDIUM 142,2018-030H,2026-06-16T01:31:31.410336,14.34217473,.0002073,86.3955,290.8190,98.6689,261.4742,0,U,43256,999,42997,.52737E-5,.35E-6,0
IRIDIUM 150,2018-030J,2026-06-16T02:26:19.438368,14.34217546,.000214,86.3958,290.9195,93.4911,266.6530,0,U,43257,999,43000,-.10909E-5,.17E-6,0
IRIDIUM 143,2018-030K,2026-06-16T01:58:55.408800,14.34217471,.0002072,86.3961,291.0200,96.3940,263.7491,0,U,43258,999,42993,.18334E-4,.71E-6,0
IRIDIUM 161,2018-047C,2026-06-16T04:45:38.439648,14.43282520,.000252,86.4482,88.8846,84.6909,275.4579,0,U,43478,999,42499,.77639E-4,.281E-5,0
IRIDIUM 152,2018-047D,2026-06-16T04:40:34.235616,14.34218238,.0002327,86.3959,88.7473,82.9531,277.1929,0,U,43479,999,42234,.26195E-4,.93E-6,0
IRIDIUM 147,2018-047E,2026-06-16T01:28:46.282656,14.34217628,.0002145,86.3960,88.8081,85.6874,274.4567,0,U,43480,999,42232,.58982E-5,.36E-6,0
IRIDIUM 110,2018-047F,2026-06-16T03:18:22.357728,14.34217125,.0002575,86.3961,88.8680,82.7330,277.4158,0,U,43481,999,42232,.23817E-4,.86E-6,0
IRIDIUM 162,2018-047G,2026-06-16T04:36:34.942176,14.43281182,.0002269,86.4482,88.7784,82.4099,277.7359,0,U,43482,999,42498,.78622E-4,.285E-5,0
IRIDIUM 160,2018-061A,2026-06-16T03:40:50.479392,14.34218039,.0002259,86.3963,57.2298,85.3720,274.7734,0,U,43569,999,41322,.20356E-4,.77E-6,0
IRIDIUM 166,2018-061B,2026-06-16T04:17:22.482816,14.34217728,.0002103,86.3963,57.1697,86.2993,273.8444,0,U,43570,999,41325,.66612E-5,.38E-6,0
IRIDIUM 158,2018-061C,2026-06-16T03:31:42.458016,14.34217978,.0002184,86.3962,57.1928,82.2197,277.9246,0,U,43571,999,41321,.20388E-4,.77E-6,0
IRIDIUM 165,2018-061D,2026-06-16T04:08:14.407008,14.34217515,.000206,86.3964,57.2287,86.3026,273.8405,0,U,43572,999,41324,.2913E-4,.101E-5,0
IRIDIUM 155,2018-061E,2026-06-16T03:13:26.485248,14.34217634,.0002105,86.3959,57.1136,82.4371,277.7064,0,U,43573,999,41320,.55632E-5,.35E-6,0
IRIDIUM 154,2018-061F,2026-06-16T04:26:30.246720,14.34214747,.0002247,86.3974,57.2275,92.9855,267.1598,0,U,43574,999,41326,.70429E-4,.217E-5,0
IRIDIUM 163,2018-061G,2026-06-16T03:59:06.165312,14.34216448,.0002257,86.3960,57.1492,83.2786,276.8666,0,U,43575,999,41323,.15849E-4,.64E-6,0
